{"fetched_at":"2026-07-10T18:07:53.733Z","source":"https://celestrak.org/NORAD/elements/gp.php?GROUP=planet&FORMAT=JSON","constellation":"superdove","records":[{"OBJECT_NAME":"FLOCK 4H-15","OBJECT_ID":"2025-276BE","EPOCH":"2026-07-10T03:50:33.291456","CLASSIFICATION_TYPE":"U","MEAN_MOTION":15.19842756,"ECCENTRICITY":0.00027465,"INCLINATION":97.4213,"RA_OF_ASC_NODE":264.2704,"ARG_OF_PERICENTER":303.3382,"MEAN_ANOMALY":56.759,"EPHEMERIS_TYPE":0,"NORAD_CAT_ID":66718,"ELEMENT_SET_NO":999,"REV_AT_EPOCH":3390,"BSTAR":0.00023393005,"MEAN_MOTION_DOT":0.00004948,"MEAN_MOTION_DDOT":0},{"OBJECT_NAME":"FLOCK 4H-16","OBJECT_ID":"2025-276BF","EPOCH":"2026-07-09T22:28:09.579936","CLASSIFICATION_TYPE":"U","MEAN_MOTION":15.201085,"ECCENTRICITY":0.0002729,"INCLINATION":97.4231,"RA_OF_ASC_NODE":264.1576,"ARG_OF_PERICENTER":287.269,"MEAN_ANOMALY":72.8246,"EPHEMERIS_TYPE":0,"NORAD_CAT_ID":66719,"ELEMENT_SET_NO":999,"REV_AT_EPOCH":3387,"BSTAR":0.00023366636,"MEAN_MOTION_DOT":0.00004981,"MEAN_MOTION_DDOT":0},{"OBJECT_NAME":"FLOCK 4H-18","OBJECT_ID":"2025-276BH","EPOCH":"2026-07-10T03:21:07.997760","CLASSIFICATION_TYPE":"U","MEAN_MOTION":15.20051594,"ECCENTRICITY":0.00024678,"INCLINATION":97.4173,"RA_OF_ASC_NODE":264.1757,"ARG_OF_PERICENTER":322.3495,"MEAN_ANOMALY":37.7567,"EPHEMERIS_TYPE":0,"NORAD_CAT_ID":66721,"ELEMENT_SET_NO":999,"REV_AT_EPOCH":3390,"BSTAR":0.00023365955,"MEAN_MOTION_DOT":0.00004972,"MEAN_MOTION_DDOT":0},{"OBJECT_NAME":"FLOCK 4H-19","OBJECT_ID":"2025-276BJ","EPOCH":"2026-07-10T03:25:47.910432","CLASSIFICATION_TYPE":"U","MEAN_MOTION":15.21251113,"ECCENTRICITY":0.00020008,"INCLINATION":97.4173,"RA_OF_ASC_NODE":264.6323,"ARG_OF_PERICENTER":159.6511,"MEAN_ANOMALY":200.4805,"EPHEMERIS_TYPE":0,"NORAD_CAT_ID":66722,"ELEMENT_SET_NO":999,"REV_AT_EPOCH":3322,"BSTAR":0.00020145704,"MEAN_MOTION_DOT":0.00004431,"MEAN_MOTION_DDOT":0},{"OBJECT_NAME":"FLOCK 4H-20","OBJECT_ID":"2025-276BK","EPOCH":"2026-07-10T05:04:21.161856","CLASSIFICATION_TYPE":"U","MEAN_MOTION":15.21406977,"ECCENTRICITY":0.00023711,"INCLINATION":97.4212,"RA_OF_ASC_NODE":264.8023,"ARG_OF_PERICENTER":185.6637,"MEAN_ANOMALY":174.4572,"EPHEMERIS_TYPE":0,"NORAD_CAT_ID":66723,"ELEMENT_SET_NO":999,"REV_AT_EPOCH":3319,"BSTAR":0.00022680059,"MEAN_MOTION_DOT":0.0000502,"MEAN_MOTION_DDOT":0},{"OBJECT_NAME":"FLOCK 4H-21","OBJECT_ID":"2025-276BL","EPOCH":"2026-07-09T17:09:40.336416","CLASSIFICATION_TYPE":"U","MEAN_MOTION":15.20989439,"ECCENTRICITY":0.00021293,"INCLINATION":97.4175,"RA_OF_ASC_NODE":264.1428,"ARG_OF_PERICENTER":185.4198,"MEAN_ANOMALY":174.7015,"EPHEMERIS_TYPE":0,"NORAD_CAT_ID":66724,"ELEMENT_SET_NO":999,"REV_AT_EPOCH":3311,"BSTAR":0.00021331223,"MEAN_MOTION_DOT":0.0000466,"MEAN_MOTION_DDOT":0},{"OBJECT_NAME":"FLOCK 4H-22","OBJECT_ID":"2025-276BM","EPOCH":"2026-07-09T11:52:07.163904","CLASSIFICATION_TYPE":"U","MEAN_MOTION":15.20471487,"ECCENTRICITY":0.00013715,"INCLINATION":97.4164,"RA_OF_ASC_NODE":263.6414,"ARG_OF_PERICENTER":338.3994,"MEAN_ANOMALY":21.7183,"EPHEMERIS_TYPE":0,"NORAD_CAT_ID":66725,"ELEMENT_SET_NO":999,"REV_AT_EPOCH":3381,"BSTAR":0.00024239209,"MEAN_MOTION_DOT":0.00005225,"MEAN_MOTION_DDOT":0},{"OBJECT_NAME":"FLOCK 4H-23","OBJECT_ID":"2025-276BN","EPOCH":"2026-07-10T00:10:29.137152","CLASSIFICATION_TYPE":"U","MEAN_MOTION":15.20029153,"ECCENTRICITY":0.00027951,"INCLINATION":97.4237,"RA_OF_ASC_NODE":264.2289,"ARG_OF_PERICENTER":273.6935,"MEAN_ANOMALY":86.398,"EPHEMERIS_TYPE":0,"NORAD_CAT_ID":66726,"ELEMENT_SET_NO":999,"REV_AT_EPOCH":3388,"BSTAR":0.00023781263,"MEAN_MOTION_DOT":0.00005059,"MEAN_MOTION_DDOT":0},{"OBJECT_NAME":"FLOCK 4H-24","OBJECT_ID":"2025-276BP","EPOCH":"2026-07-09T03:16:51.366432","CLASSIFICATION_TYPE":"U","MEAN_MOTION":15.20127906,"ECCENTRICITY":0.00024156,"INCLINATION":97.423,"RA_OF_ASC_NODE":263.4008,"ARG_OF_PERICENTER":303.3331,"MEAN_ANOMALY":56.7673,"EPHEMERIS_TYPE":0,"NORAD_CAT_ID":66727,"ELEMENT_SET_NO":999,"REV_AT_EPOCH":3375,"BSTAR":0.00021482611,"MEAN_MOTION_DOT":0.00004576,"MEAN_MOTION_DDOT":0},{"OBJECT_NAME":"FLOCK 4H-25","OBJECT_ID":"2025-276BQ","EPOCH":"2026-07-10T04:39:01.213920","CLASSIFICATION_TYPE":"U","MEAN_MOTION":15.20905995,"ECCENTRICITY":0.00016036,"INCLINATION":97.4189,"RA_OF_ASC_NODE":264.6054,"ARG_OF_PERICENTER":129.5041,"MEAN_ANOMALY":230.6337,"EPHEMERIS_TYPE":0,"NORAD_CAT_ID":66728,"ELEMENT_SET_NO":999,"REV_AT_EPOCH":3321,"BSTAR":0.00018792698,"MEAN_MOTION_DOT":0.00004087,"MEAN_MOTION_DDOT":0},{"OBJECT_NAME":"FLOCK 4H-26","OBJECT_ID":"2025-276BR","EPOCH":"2026-07-10T00:35:53.753280","CLASSIFICATION_TYPE":"U","MEAN_MOTION":15.19860825,"ECCENTRICITY":0.00032288,"INCLINATION":97.4186,"RA_OF_ASC_NODE":264.062,"ARG_OF_PERICENTER":292.7541,"MEAN_ANOMALY":67.3353,"EPHEMERIS_TYPE":0,"NORAD_CAT_ID":66729,"ELEMENT_SET_NO":999,"REV_AT_EPOCH":3388,"BSTAR":0.00023501755,"MEAN_MOTION_DOT":0.00004974,"MEAN_MOTION_DDOT":0},{"OBJECT_NAME":"FLOCK 4H-27","OBJECT_ID":"2025-276BS","EPOCH":"2026-07-10T03:47:31.453152","CLASSIFICATION_TYPE":"U","MEAN_MOTION":15.20729295,"ECCENTRICITY":0.00013101,"INCLINATION":97.4164,"RA_OF_ASC_NODE":264.4263,"ARG_OF_PERICENTER":125.4379,"MEAN_ANOMALY":234.6979,"EPHEMERIS_TYPE":0,"NORAD_CAT_ID":66730,"ELEMENT_SET_NO":999,"REV_AT_EPOCH":3392,"BSTAR":0.0002405294,"MEAN_MOTION_DOT":0.00005223,"MEAN_MOTION_DDOT":0},{"OBJECT_NAME":"FLOCK 4H-29","OBJECT_ID":"2025-276BU","EPOCH":"2026-07-10T03:16:41.967840","CLASSIFICATION_TYPE":"U","MEAN_MOTION":15.20001851,"ECCENTRICITY":0.00018186,"INCLINATION":97.4166,"RA_OF_ASC_NODE":264.1548,"ARG_OF_PERICENTER":318.5568,"MEAN_ANOMALY":41.5529,"EPHEMERIS_TYPE":0,"NORAD_CAT_ID":66732,"ELEMENT_SET_NO":999,"REV_AT_EPOCH":3390,"BSTAR":0.00022870497,"MEAN_MOTION_DOT":0.00004858,"MEAN_MOTION_DDOT":0},{"OBJECT_NAME":"FLOCK 4H-30","OBJECT_ID":"2025-276BV","EPOCH":"2026-07-09T23:56:02.844960","CLASSIFICATION_TYPE":"U","MEAN_MOTION":15.20124472,"ECCENTRICITY":0.00026398,"INCLINATION":97.4227,"RA_OF_ASC_NODE":264.2198,"ARG_OF_PERICENTER":295.8169,"MEAN_ANOMALY":64.2794,"EPHEMERIS_TYPE":0,"NORAD_CAT_ID":66733,"ELEMENT_SET_NO":999,"REV_AT_EPOCH":3388,"BSTAR":0.00022125596,"MEAN_MOTION_DOT":0.00004715,"MEAN_MOTION_DDOT":0},{"OBJECT_NAME":"FLOCK 4H-31","OBJECT_ID":"2025-276BW","EPOCH":"2026-07-10T03:34:45.810048","CLASSIFICATION_TYPE":"U","MEAN_MOTION":15.19903315,"ECCENTRICITY":0.00022199,"INCLINATION":97.4163,"RA_OF_ASC_NODE":264.1347,"ARG_OF_PERICENTER":309.1473,"MEAN_ANOMALY":50.9565,"EPHEMERIS_TYPE":0,"NORAD_CAT_ID":66734,"ELEMENT_SET_NO":999,"REV_AT_EPOCH":3390,"BSTAR":0.00024322374,"MEAN_MOTION_DOT":0.00005156,"MEAN_MOTION_DDOT":0},{"OBJECT_NAME":"FLOCK 4H-32","OBJECT_ID":"2025-276BX","EPOCH":"2026-07-10T00:08:19.664160","CLASSIFICATION_TYPE":"U","MEAN_MOTION":15.20021053,"ECCENTRICITY":0.00029757,"INCLINATION":97.4219,"RA_OF_ASC_NODE":264.1853,"ARG_OF_PERICENTER":290.7711,"MEAN_ANOMALY":69.3205,"EPHEMERIS_TYPE":0,"NORAD_CAT_ID":66735,"ELEMENT_SET_NO":999,"REV_AT_EPOCH":3388,"BSTAR":0.00022772513,"MEAN_MOTION_DOT":0.0000484,"MEAN_MOTION_DDOT":0}]}
