FLOCK 4H-15             
1 66718U 25276BE  26191.16010754  .00004948  00000+0  23393-3 0  9990
2 66718  97.4213 264.2704 0002746 303.3382  56.7590 15.19842756 33907
FLOCK 4H-16             
1 66719U 25276BF  26190.93622199  .00004981  00000+0  23367-3 0  9995
2 66719  97.4231 264.1576 0002729 287.2690  72.8246 15.20108500 33874
FLOCK 4H-18             
1 66721U 25276BH  26191.13967590  .00004972  00000+0  23366-3 0  9997
2 66721  97.4173 264.1757 0002467 322.3495  37.7567 15.20051594 33906
FLOCK 4H-19             
1 66722U 25276BJ  26191.14291563  .00004431  00000+0  20146-3 0  9992
2 66722  97.4173 264.6323 0002000 159.6511 200.4805 15.21251113 33223
FLOCK 4H-20             
1 66723U 25276BK  26191.21135604  .00005020  00000+0  22680-3 0  9994
2 66723  97.4212 264.8023 0002371 185.6637 174.4572 15.21406977 33193
FLOCK 4H-21             
1 66724U 25276BL  26190.71505019  .00004660  00000+0  21331-3 0  9991
2 66724  97.4175 264.1428 0002129 185.4198 174.7015 15.20989439 33110
FLOCK 4H-22             
1 66725U 25276BM  26190.49452736  .00005225  00000+0  24239-3 0  9992
2 66725  97.4164 263.6414 0001371 338.3994  21.7183 15.20471487 33812
FLOCK 4H-23             
1 66726U 25276BN  26191.00728168  .00005059  00000+0  23781-3 0  9992
2 66726  97.4237 264.2289 0002795 273.6935  86.3980 15.20029153 33886
FLOCK 4H-24             
1 66727U 25276BP  26190.13670563  .00004576  00000+0  21483-3 0  9991
2 66727  97.4230 263.4008 0002415 303.3331  56.7673 15.20127906 33751
FLOCK 4H-25             
1 66728U 25276BQ  26191.19376405  .00004087  00000+0  18793-3 0  9994
2 66728  97.4189 264.6054 0001603 129.5041 230.6337 15.20905995 33216
FLOCK 4H-26             
1 66729U 25276BR  26191.02492770  .00004974  00000+0  23502-3 0  9990
2 66729  97.4186 264.0620 0003228 292.7541  67.3353 15.19860825 33886
FLOCK 4H-27             
1 66730U 25276BS  26191.15800293  .00005223  00000+0  24053-3 0  9999
2 66730  97.4164 264.4263 0001310 125.4379 234.6979 15.20729295 33927
FLOCK 4H-29             
1 66732U 25276BU  26191.13659685  .00004858  00000+0  22870-3 0  9994
2 66732  97.4166 264.1548 0001818 318.5568  41.5529 15.20001851 33907
FLOCK 4H-30             
1 66733U 25276BV  26190.99725515  .00004715  00000+0  22126-3 0  9990
2 66733  97.4227 264.2198 0002639 295.8169  64.2794 15.20124472 33882
FLOCK 4H-31             
1 66734U 25276BW  26191.14914132  .00005156  00000+0  24322-3 0  9994
2 66734  97.4163 264.1347 0002219 309.1473  50.9565 15.19903315 33908
FLOCK 4H-32             
1 66735U 25276BX  26191.00578315  .00004840  00000+0  22773-3 0  9996
2 66735  97.4219 264.1853 0002975 290.7711  69.3205 15.20021053 33886
